IRIDIUM 173             
1 43925U 19002D   26115.79054374 -.00000027  00000+0 -16873-4 0  9998
2 43925  86.4009  15.4605 0002080  87.6447 272.4987 14.34217081381449
IRIDIUM 169             
1 43926U 19002E   26115.80719332  .00000325  00000+0  99611-4 0  9993
2 43926  86.4241  47.0813 0002804  93.4630 266.6888 14.38608065382696
IRIDIUM 172             
1 43927U 19002F   26115.78419881  .00000011  00000+0 -32225-5 0  9999
2 43927  86.4007  15.4708 0001990  85.1280 275.0143 14.34218808381452
IRIDIUM 175             
1 43928U 19002G   26115.80398571  .00000085  00000+0  19003-4 0  9993
2 43928  86.4489 312.4338 0004884  57.9547 302.2128 14.43590106391422
IRIDIUM 171             
1 43929U 19002H   26115.76517347 -.00000022  00000+0 -14751-4 0  9991
2 43929  86.4020  15.7791 0002203  82.7835 277.3611 14.34217325381448
IRIDIUM 170             
1 43930U 19002J   26115.76206990  .00000670  00000+0  10240-3 0  9997
2 43930  86.6136  15.4596 0002253  83.9939 276.1535 14.72252547391544
IRIDIUM 167             
1 43931U 19002K   26115.75883089  .00000006  00000+0 -48849-5 0  9999
2 43931  86.4012  15.5036 0002390  82.4138 277.7329 14.34217660381444
IRIDIUM 181             
1 56726U 23068S   26115.83209279  .00000346  00000+0  96846-4 0  9999
2 56726  86.4472  78.6726 0002153  80.7305 279.4140 14.43309701154884
IRIDIUM 177             
1 56727U 23068T   26115.72863310  .00000868  00000+0  11077-3 0  9991
2 56727  86.1995 353.7083 0002275  92.5475 267.6007 14.80233487158602
IRIDIUM 174             
1 56728U 23068U   26115.74970466  .00000596  00000+0  90694-4 0  9996
2 56728  86.6135  15.6057 0002431  96.7595 263.3899 14.72252172158304
IRIDIUM 178             
1 56729U 23068V   26115.78522873  .00000974  00000+0  12468-3 0  9998
2 56729  86.6553  47.2486 0002486  79.4335 280.7167 14.80238632158615
IRIDIUM 179             
1 56730U 23068W   26115.84746384  .00001119  00000+0  14383-3 0  9992
2 56730  86.6784  56.0482 0002872  82.5674 277.5874 14.80234534158624
