[{"OBJECT_NAME":"IRIDIUM 173","OBJECT_ID":"2019-002D","EPOCH":"2026-04-25T18:58:22.979136","MEAN_MOTION":14.34217081,"ECCENTRICITY":0.000208,"INCLINATION":86.4009,"RA_OF_ASC_NODE":15.4605,"ARG_OF_PERICENTER":87.6447,"MEAN_ANOMALY":272.4987,"EPHEMERIS_TYPE":0,"CLASSIFICATION_TYPE":"U","NORAD_CAT_ID":43925,"ELEMENT_SET_NO":999,"REV_AT_EPOCH":38144,"BSTAR":-1.6873e-5,"MEAN_MOTION_DOT":-2.7e-7,"MEAN_MOTION_DDOT":0},{"OBJECT_NAME":"IRIDIUM 169","OBJECT_ID":"2019-002E","EPOCH":"2026-04-25T19:22:21.502848","MEAN_MOTION":14.38608065,"ECCENTRICITY":0.0002804,"INCLINATION":86.4241,"RA_OF_ASC_NODE":47.0813,"ARG_OF_PERICENTER":93.463,"MEAN_ANOMALY":266.6888,"EPHEMERIS_TYPE":0,"CLASSIFICATION_TYPE":"U","NORAD_CAT_ID":43926,"ELEMENT_SET_NO":999,"REV_AT_EPOCH":38269,"BSTAR":9.9611e-5,"MEAN_MOTION_DOT":3.25e-6,"MEAN_MOTION_DDOT":0},{"OBJECT_NAME":"IRIDIUM 172","OBJECT_ID":"2019-002F","EPOCH":"2026-04-25T18:49:14.777184","MEAN_MOTION":14.34218808,"ECCENTRICITY":0.000199,"INCLINATION":86.4007,"RA_OF_ASC_NODE":15.4708,"ARG_OF_PERICENTER":85.128,"MEAN_ANOMALY":275.0143,"EPHEMERIS_TYPE":0,"CLASSIFICATION_TYPE":"U","NORAD_CAT_ID":43927,"ELEMENT_SET_NO":999,"REV_AT_EPOCH":38145,"BSTAR":-3.2225e-6,"MEAN_MOTION_DOT":1.1e-7,"MEAN_MOTION_DDOT":0},{"OBJECT_NAME":"IRIDIUM 175","OBJECT_ID":"2019-002G","EPOCH":"2026-04-25T19:17:44.365344","MEAN_MOTION":14.43590106,"ECCENTRICITY":0.0004884,"INCLINATION":86.4489,"RA_OF_ASC_NODE":312.4338,"ARG_OF_PERICENTER":57.9547,"MEAN_ANOMALY":302.2128,"EPHEMERIS_TYPE":0,"CLASSIFICATION_TYPE":"U","NORAD_CAT_ID":43928,"ELEMENT_SET_NO":999,"REV_AT_EPOCH":39142,"BSTAR":1.9003e-5,"MEAN_MOTION_DOT":8.5e-7,"MEAN_MOTION_DDOT":0},{"OBJECT_NAME":"IRIDIUM 171","OBJECT_ID":"2019-002H","EPOCH":"2026-04-25T18:21:50.987808","MEAN_MOTION":14.34217325,"ECCENTRICITY":0.0002203,"INCLINATION":86.402,"RA_OF_ASC_NODE":15.7791,"ARG_OF_PERICENTER":82.7835,"MEAN_ANOMALY":277.3611,"EPHEMERIS_TYPE":0,"CLASSIFICATION_TYPE":"U","NORAD_CAT_ID":43929,"ELEMENT_SET_NO":999,"REV_AT_EPOCH":38144,"BSTAR":-1.4751e-5,"MEAN_MOTION_DOT":-2.2e-7,"MEAN_MOTION_DDOT":0},{"OBJECT_NAME":"IRIDIUM 170","OBJECT_ID":"2019-002J","EPOCH":"2026-04-25T18:17:22.839360","MEAN_MOTION":14.72252547,"ECCENTRICITY":0.0002253,"INCLINATION":86.6136,"RA_OF_ASC_NODE":15.4596,"ARG_OF_PERICENTER":83.9939,"MEAN_ANOMALY":276.1535,"EPHEMERIS_TYPE":0,"CLASSIFICATION_TYPE":"U","NORAD_CAT_ID":43930,"ELEMENT_SET_NO":999,"REV_AT_EPOCH":39154,"BSTAR":0.0001024,"MEAN_MOTION_DOT":6.7e-6,"MEAN_MOTION_DDOT":0},{"OBJECT_NAME":"IRIDIUM 167","OBJECT_ID":"2019-002K","EPOCH":"2026-04-25T18:12:42.988896","MEAN_MOTION":14.3421766,"ECCENTRICITY":0.000239,"INCLINATION":86.4012,"RA_OF_ASC_NODE":15.5036,"ARG_OF_PERICENTER":82.4138,"MEAN_ANOMALY":277.7329,"EPHEMERIS_TYPE":0,"CLASSIFICATION_TYPE":"U","NORAD_CAT_ID":43931,"ELEMENT_SET_NO":999,"REV_AT_EPOCH":38144,"BSTAR":-4.8849e-6,"MEAN_MOTION_DOT":6.0e-8,"MEAN_MOTION_DDOT":0},{"OBJECT_NAME":"IRIDIUM 181","OBJECT_ID":"2023-068S","EPOCH":"2026-04-25T19:58:12.817056","MEAN_MOTION":14.43309701,"ECCENTRICITY":0.0002153,"INCLINATION":86.4472,"RA_OF_ASC_NODE":78.6726,"ARG_OF_PERICENTER":80.7305,"MEAN_ANOMALY":279.414,"EPHEMERIS_TYPE":0,"CLASSIFICATION_TYPE":"U","NORAD_CAT_ID":56726,"ELEMENT_SET_NO":999,"REV_AT_EPOCH":15488,"BSTAR":9.6846e-5,"MEAN_MOTION_DOT":3.46e-6,"MEAN_MOTION_DDOT":0},{"OBJECT_NAME":"IRIDIUM 177","OBJECT_ID":"2023-068T","EPOCH":"2026-04-25T17:29:13.899840","MEAN_MOTION":14.80233487,"ECCENTRICITY":0.0002275,"INCLINATION":86.1995,"RA_OF_ASC_NODE":353.7083,"ARG_OF_PERICENTER":92.5475,"MEAN_ANOMALY":267.6007,"EPHEMERIS_TYPE":0,"CLASSIFICATION_TYPE":"U","NORAD_CAT_ID":56727,"ELEMENT_SET_NO":999,"REV_AT_EPOCH":15860,"BSTAR":0.00011077,"MEAN_MOTION_DOT":8.68e-6,"MEAN_MOTION_DDOT":0},{"OBJECT_NAME":"IRIDIUM 174","OBJECT_ID":"2023-068U","EPOCH":"2026-04-25T17:59:34.482624","MEAN_MOTION":14.72252172,"ECCENTRICITY":0.0002431,"INCLINATION":86.6135,"RA_OF_ASC_NODE":15.6057,"ARG_OF_PERICENTER":96.7595,"MEAN_ANOMALY":263.3899,"EPHEMERIS_TYPE":0,"CLASSIFICATION_TYPE":"U","NORAD_CAT_ID":56728,"ELEMENT_SET_NO":999,"REV_AT_EPOCH":15830,"BSTAR":9.0694e-5,"MEAN_MOTION_DOT":5.96e-6,"MEAN_MOTION_DDOT":0},{"OBJECT_NAME":"IRIDIUM 178","OBJECT_ID":"2023-068V","EPOCH":"2026-04-25T18:50:43.762272","MEAN_MOTION":14.80238632,"ECCENTRICITY":0.0002486,"INCLINATION":86.6553,"RA_OF_ASC_NODE":47.2486,"ARG_OF_PERICENTER":79.4335,"MEAN_ANOMALY":280.7167,"EPHEMERIS_TYPE":0,"CLASSIFICATION_TYPE":"U","NORAD_CAT_ID":56729,"ELEMENT_SET_NO":999,"REV_AT_EPOCH":15861,"BSTAR":0.00012468,"MEAN_MOTION_DOT":9.74e-6,"MEAN_MOTION_DDOT":0},{"OBJECT_NAME":"IRIDIUM 179","OBJECT_ID":"2023-068W","EPOCH":"2026-04-25T20:20:20.875776","MEAN_MOTION":14.80234534,"ECCENTRICITY":0.0002872,"INCLINATION":86.6784,"RA_OF_ASC_NODE":56.0482,"ARG_OF_PERICENTER":82.5674,"MEAN_ANOMALY":277.5874,"EPHEMERIS_TYPE":0,"CLASSIFICATION_TYPE":"U","NORAD_CAT_ID":56730,"ELEMENT_SET_NO":999,"REV_AT_EPOCH":15862,"BSTAR":0.00014383,"MEAN_MOTION_DOT":1.119e-5,"MEAN_MOTION_DDOT":0}]
